[{"OBJECT_NAME":"ONEWEB-0599","OBJECT_ID":"2023-004R","EPOCH":"2026-06-19T23:40:26.683680","MEAN_MOTION":13.17648631,"ECCENTRICITY":0.0001654,"INCLINATION":87.9129,"RA_OF_ASC_NODE":5.3072,"ARG_OF_PERICENTER":90.5046,"MEAN_ANOMALY":269.6275,"EPHEMERIS_TYPE":0,"CLASSIFICATION_TYPE":"U","NORAD_CAT_ID":55155,"ELEMENT_SET_NO":999,"REV_AT_EPOCH":16785,"BSTAR":0.00026893,"MEAN_MOTION_DOT":1.17e-06,"MEAN_MOTION_DDOT":0.0},{"OBJECT_NAME":"ONEWEB-0614","OBJECT_ID":"2023-004S","EPOCH":"2026-06-20T06:47:59.979840","MEAN_MOTION":13.1141447,"ECCENTRICITY":0.0001991,"INCLINATION":87.8881,"RA_OF_ASC_NODE":20.461,"ARG_OF_PERICENTER":81.9265,"MEAN_ANOMALY":278.2089,"EPHEMERIS_TYPE":0,"CLASSIFICATION_TYPE":"U","NORAD_CAT_ID":55156,"ELEMENT_SET_NO":999,"REV_AT_EPOCH":16624,"BSTAR":4.6070000000000004e-05,"MEAN_MOTION_DOT":2.9e-07,"MEAN_MOTION_DDOT":0.0},{"OBJECT_NAME":"ONEWEB-0616","OBJECT_ID":"2023-004T","EPOCH":"2026-06-19T22:51:51.049152","MEAN_MOTION":13.17649303,"ECCENTRICITY":9.4e-05,"INCLINATION":87.9133,"RA_OF_ASC_NODE":5.3173,"ARG_OF_PERICENTER":85.355,"MEAN_ANOMALY":274.7689,"EPHEMERIS_TYPE":0,"CLASSIFICATION_TYPE":"U","NORAD_CAT_ID":55157,"ELEMENT_SET_NO":999,"REV_AT_EPOCH":16806,"BSTAR":6.9661e-05,"MEAN_MOTION_DOT":4e-07,"MEAN_MOTION_DDOT":0.0},{"OBJECT_NAME":"ONEWEB-0617","OBJECT_ID":"2023-004U","EPOCH":"2026-06-20T06:30:55.922976","MEAN_MOTION":13.11414893,"ECCENTRICITY":0.0002234,"INCLINATION":87.8888,"RA_OF_ASC_NODE":20.4546,"ARG_OF_PERICENTER":84.5653,"MEAN_ANOMALY":275.5729,"EPHEMERIS_TYPE":0,"CLASSIFICATION_TYPE":"U","NORAD_CAT_ID":55158,"ELEMENT_SET_NO":999,"REV_AT_EPOCH":16626,"BSTAR":0.0011716,"MEAN_MOTION_DOT":4.28e-06,"MEAN_MOTION_DDOT":0.0},{"OBJECT_NAME":"ONEWEB-0618","OBJECT_ID":"2023-004V","EPOCH":"2026-06-19T23:14:39.136128","MEAN_MOTION":15.13152592,"ECCENTRICITY":0.0009468,"INCLINATION":86.9092,"RA_OF_ASC_NODE":176.5056,"ARG_OF_PERICENTER":286.857,"MEAN_ANOMALY":73.1631,"EPHEMERIS_TYPE":0,"CLASSIFICATION_TYPE":"U","NORAD_CAT_ID":55159,"ELEMENT_SET_NO":999,"REV_AT_EPOCH":18268,"BSTAR":0.00018759,"MEAN_MOTION_DOT":3.359e-05,"MEAN_MOTION_DDOT":0.0},{"OBJECT_NAME":"ONEWEB-0619","OBJECT_ID":"2023-004W","EPOCH":"2026-06-20T06:55:24.902688","MEAN_MOTION":13.1764852,"ECCENTRICITY":0.0001855,"INCLINATION":87.9142,"RA_OF_ASC_NODE":5.2314,"ARG_OF_PERICENTER":77.0842,"MEAN_ANOMALY":283.0497,"EPHEMERIS_TYPE":0,"CLASSIFICATION_TYPE":"U","NORAD_CAT_ID":55160,"ELEMENT_SET_NO":999,"REV_AT_EPOCH":16800,"BSTAR":8.6222e-06,"MEAN_MOTION_DOT":1.6e-07,"MEAN_MOTION_DDOT":0.0},{"OBJECT_NAME":"ONEWEB-0620","OBJECT_ID":"2023-004X","EPOCH":"2026-06-19T23:04:07.283424","MEAN_MOTION":13.11414794,"ECCENTRICITY":0.0001933,"INCLINATION":87.8882,"RA_OF_ASC_NODE":20.5248,"ARG_OF_PERICENTER":93.8989,"MEAN_ANOMALY":266.236,"EPHEMERIS_TYPE":0,"CLASSIFICATION_TYPE":"U","NORAD_CAT_ID":55161,"ELEMENT_SET_NO":999,"REV_AT_EPOCH":16619,"BSTAR":0.0014814,"MEAN_MOTION_DOT":5.38e-06,"MEAN_MOTION_DDOT":0.0},{"OBJECT_NAME":"ONEWEB-0621","OBJECT_ID":"2023-004Y","EPOCH":"2026-06-19T14:33:50.016960","MEAN_MOTION":13.11414993,"ECCENTRICITY":0.0002002,"INCLINATION":87.8897,"RA_OF_ASC_NODE":20.5843,"ARG_OF_PERICENTER":81.2773,"MEAN_ANOMALY":278.8581,"EPHEMERIS_TYPE":0,"CLASSIFICATION_TYPE":"U","NORAD_CAT_ID":55162,"ELEMENT_SET_NO":999,"REV_AT_EPOCH":16612,"BSTAR":-0.0013216,"MEAN_MOTION_DOT":-4.56e-06,"MEAN_MOTION_DDOT":0.0},{"OBJECT_NAME":"ONEWEB-0622","OBJECT_ID":"2023-004Z","EPOCH":"2026-06-19T14:41:09.722976","MEAN_MOTION":13.11415732,"ECCENTRICITY":0.0002554,"INCLINATION":87.8895,"RA_OF_ASC_NODE":20.5859,"ARG_OF_PERICENTER":87.2634,"MEAN_ANOMALY":272.8786,"EPHEMERIS_TYPE":0,"CLASSIFICATION_TYPE":"U","NORAD_CAT_ID":55163,"ELEMENT_SET_NO":999,"REV_AT_EPOCH":16611,"BSTAR":-0.0014871,"MEAN_MOTION_DOT":-5.14e-06,"MEAN_MOTION_DDOT":0.0},{"OBJECT_NAME":"ONEWEB-0623","OBJECT_ID":"2023-004AA","EPOCH":"2026-06-20T06:48:06.531552","MEAN_MOTION":13.17649799,"ECCENTRICITY":0.0002457,"INCLINATION":87.9129,"RA_OF_ASC_NODE":5.2625,"ARG_OF_PERICENTER":75.5813,"MEAN_ANOMALY":284.5591,"EPHEMERIS_TYPE":0,"CLASSIFICATION_TYPE":"U","NORAD_CAT_ID":55164,"ELEMENT_SET_NO":999,"REV_AT_EPOCH":16799,"BSTAR":0.00012935,"MEAN_MOTION_DOT":6.3e-07,"MEAN_MOTION_DDOT":0.0},{"OBJECT_NAME":"ONEWEB-0624","OBJECT_ID":"2023-004AB","EPOCH":"2026-06-19T22:31:19.394688","MEAN_MOTION":13.12930814,"ECCENTRICITY":0.0001799,"INCLINATION":87.8927,"RA_OF_ASC_NODE":350.0374,"ARG_OF_PERICENTER":92.1817,"MEAN_ANOMALY":267.9517,"EPHEMERIS_TYPE":0,"CLASSIFICATION_TYPE":"U","NORAD_CAT_ID":55165,"ELEMENT_SET_NO":999,"REV_AT_EPOCH":16843,"BSTAR":-0.00016249,"MEAN_MOTION_DOT":-4.6e-07,"MEAN_MOTION_DDOT":0.0},{"OBJECT_NAME":"ONEWEB-0625","OBJECT_ID":"2023-004AC","EPOCH":"2026-06-20T06:33:32.721696","MEAN_MOTION":13.17648849,"ECCENTRICITY":0.0001714,"INCLINATION":87.9131,"RA_OF_ASC_NODE":5.2603,"ARG_OF_PERICENTER":87.0102,"MEAN_ANOMALY":273.1225,"EPHEMERIS_TYPE":0,"CLASSIFICATION_TYPE":"U","NORAD_CAT_ID":55166,"ELEMENT_SET_NO":999,"REV_AT_EPOCH":16798,"BSTAR":-0.00018634,"MEAN_MOTION_DOT":-5.9e-07,"MEAN_MOTION_DDOT":0.0},{"OBJECT_NAME":"ONEWEB-0626","OBJECT_ID":"2023-004AD","EPOCH":"2026-06-19T23:01:35.555520","MEAN_MOTION":13.1765024,"ECCENTRICITY":0.0001982,"INCLINATION":87.9132,"RA_OF_ASC_NODE":5.323,"ARG_OF_PERICENTER":100.1826,"MEAN_ANOMALY":259.953,"EPHEMERIS_TYPE":0,"CLASSIFICATION_TYPE":"U","NORAD_CAT_ID":55167,"ELEMENT_SET_NO":999,"REV_AT_EPOCH":16794,"BSTAR":0.002109,"MEAN_MOTION_DOT":8.32e-06,"MEAN_MOTION_DDOT":0.0},{"OBJECT_NAME":"ONEWEB-0627","OBJECT_ID":"2023-004AE","EPOCH":"2026-06-19T22:44:33.253440","MEAN_MOTION":13.17648672,"ECCENTRICITY":0.0002241,"INCLINATION":87.9134,"RA_OF_ASC_NODE":5.3251,"ARG_OF_PERICENTER":79.1586,"MEAN_ANOMALY":280.9797,"EPHEMERIS_TYPE":0,"CLASSIFICATION_TYPE":"U","NORAD_CAT_ID":55168,"ELEMENT_SET_NO":999,"REV_AT_EPOCH":16794,"BSTAR":-3.6092000000000006e-05,"MEAN_MOTION_DOT":-1e-08,"MEAN_MOTION_DDOT":0.0},{"OBJECT_NAME":"ONEWEB-0628","OBJECT_ID":"2023-004AF","EPOCH":"2026-06-19T22:06:00.894816","MEAN_MOTION":13.12443881,"ECCENTRICITY":0.000227,"INCLINATION":87.8948,"RA_OF_ASC_NODE":350.109,"ARG_OF_PERICENTER":76.8613,"MEAN_ANOMALY":283.2769,"EPHEMERIS_TYPE":0,"CLASSIFICATION_TYPE":"U","NORAD_CAT_ID":55169,"ELEMENT_SET_NO":999,"REV_AT_EPOCH":16839,"BSTAR":-0.0013402,"MEAN_MOTION_DOT":-4.69e-06,"MEAN_MOTION_DDOT":0.0},{"OBJECT_NAME":"ONEWEB-0629","OBJECT_ID":"2023-004AG","EPOCH":"2026-06-19T22:09:18.788832","MEAN_MOTION":13.17648096,"ECCENTRICITY":0.0001835,"INCLINATION":87.913,"RA_OF_ASC_NODE":5.326,"ARG_OF_PERICENTER":78.9535,"MEAN_ANOMALY":281.1803,"EPHEMERIS_TYPE":0,"CLASSIFICATION_TYPE":"U","NORAD_CAT_ID":55170,"ELEMENT_SET_NO":999,"REV_AT_EPOCH":16794,"BSTAR":-0.00012687,"MEAN_MOTION_DOT":-3.6e-07,"MEAN_MOTION_DDOT":0.0},{"OBJECT_NAME":"ONEWEB-0631","OBJECT_ID":"2023-004AH","EPOCH":"2026-06-20T05:05:53.338560","MEAN_MOTION":13.18684215,"ECCENTRICITY":0.0002281,"INCLINATION":87.9171,"RA_OF_ASC_NODE":334.8335,"ARG_OF_PERICENTER":100.8736,"MEAN_ANOMALY":259.2653,"EPHEMERIS_TYPE":0,"CLASSIFICATION_TYPE":"U","NORAD_CAT_ID":55171,"ELEMENT_SET_NO":999,"REV_AT_EPOCH":17007,"BSTAR":-0.00038078,"MEAN_MOTION_DOT":-1.37e-06,"MEAN_MOTION_DDOT":0.0}]