ONEWEB-0599             
1 55155U 23004R   26170.98641995  .00000117  00000+0  26893-3 0  9996
2 55155  87.9129   5.3072 0001654  90.5046 269.6275 13.17648631167850
ONEWEB-0614             
1 55156U 23004S   26171.28333310  .00000029  00000+0  46070-4 0  9992
2 55156  87.8881  20.4610 0001991  81.9265 278.2089 13.11414470166249
ONEWEB-0616             
1 55157U 23004T   26170.95267418  .00000040  00000+0  69661-4 0  9995
2 55157  87.9133   5.3173 0000940  85.3550 274.7689 13.17649303168065
ONEWEB-0617             
1 55158U 23004U   26171.27148059  .00000428  00000+0  11716-2 0  9997
2 55158  87.8888  20.4546 0002234  84.5653 275.5729 13.11414893166269
ONEWEB-0618             
1 55159U 23004V   26170.96850852  .00003359  00000+0  18759-3 0  9995
2 55159  86.9092 176.5056 0009468 286.8570  73.1631 15.13152592182684
ONEWEB-0619             
1 55160U 23004W   26171.28848267  .00000016  00000+0  86222-5 0  9999
2 55160  87.9142   5.2314 0001855  77.0842 283.0497 13.17648520168007
ONEWEB-0620             
1 55161U 23004X   26170.96119541  .00000538  00000+0  14814-2 0  9994
2 55161  87.8882  20.5248 0001933  93.8989 266.2360 13.11414794166197
ONEWEB-0621             
1 55162U 23004Y   26170.60682890 -.00000456  00000+0 -13216-2 0  9994
2 55162  87.8897  20.5843 0002002  81.2773 278.8581 13.11414993166123
ONEWEB-0622             
1 55163U 23004Z   26170.61191809 -.00000514  00000+0 -14871-2 0  9994
2 55163  87.8895  20.5859 0002554  87.2634 272.8786 13.11415732166115
ONEWEB-0623             
1 55164U 23004AA  26171.28340893  .00000063  00000+0  12935-3 0  9995
2 55164  87.9129   5.2625 0002457  75.5813 284.5591 13.17649799167998
ONEWEB-0624             
1 55165U 23004AB  26170.93841892 -.00000046  00000+0 -16249-3 0  9997
2 55165  87.8927 350.0374 0001799  92.1817 267.9517 13.12930814168432
ONEWEB-0625             
1 55166U 23004AC  26171.27329539 -.00000059  00000+0 -18634-3 0  9999
2 55166  87.9131   5.2603 0001714  87.0102 273.1225 13.17648849167985
ONEWEB-0626             
1 55167U 23004AD  26170.95943930  .00000832  00000+0  21090-2 0  9997
2 55167  87.9132   5.3230 0001982 100.1826 259.9530 13.17650240167946
ONEWEB-0627             
1 55168U 23004AE  26170.94760710 -.00000001  00000+0 -36092-4 0  9990
2 55168  87.9134   5.3251 0002241  79.1586 280.9797 13.17648672167944
ONEWEB-0628             
1 55169U 23004AF  26170.92084369 -.00000469  00000+0 -13402-2 0  9994
2 55169  87.8948 350.1090 0002270  76.8613 283.2769 13.12443881168391
ONEWEB-0629             
1 55170U 23004AG  26170.92313413 -.00000036  00000+0 -12687-3 0  9996
2 55170  87.9130   5.3260 0001835  78.9535 281.1803 13.17648096167943
ONEWEB-0631             
1 55171U 23004AH  26171.21242290 -.00000137  00000+0 -38078-3 0  9998
2 55171  87.9171 334.8335 0002281 100.8736 259.2653 13.18684215170077
